MEAN_MOTION;ECCENTRICITY;INCLINATION;RA_OF_ASC_NODE;ARG_OF_PERICENTER;MEAN_ANOMALY;BSTAR;MEAN_MOTION_DOT;MEAN_MOTION_DDOT;TYPE
11.48839788;0.0011669;51.9809;142.6825;332.0626;198.5072;0.00042485;-5.5E-7;0;Globalstar
11.48839812;0.0011695;51.9807;140.1417;333.9151;176.1204;0.00040775;-5.6E-7;0;Globalstar
11.48839822;0.0011713;51.9806;137.8032;335.6194;171.4573;0.00043324;-5.4E-7;0;Globalstar
11.48839853;0.0011725;51.9806;136.5767;336.505;85.8962;0.0005553;-4.9E-7;0;Globalstar
11.48839875;0.0011734;51.9806;135.6785;337.1789;165.2582;0.00065207;-4.5E-7;0;Globalstar
11.4883991;0.0011754;51.9805;133.3687;338.8579;111.8454;0.00077572;-3.9E-7;0;Globalstar
11.48839945;0.0011777;51.9804;130.7783;340.7396;173.4338;0.00086032;-3.6E-7;0;Globalstar
11.48839975;0.0011796;51.9804;128.4733;342.4162;112.2037;0.00084557;-3.6E-7;0;Globalstar
11.48840013;0.0011811;51.9804;126.7836;343.6387;89.9992;0.00078684;-3.9E-7;0;Globalstar
11.48840002;0.0011816;51.9804;125.9136;344.2974;121.6265;0.00067563;-4.4E-7;0;Globalstar
11.48840051;0.0011852;51.9803;122.5375;346.7093;71.7723;0.00045798;-5.3E-7;0;Globalstar
11.48840047;0.0011864;51.9802;120.7831;347.9966;159.0854;0.00022918;-6.3E-7;0;Globalstar
11.48840045;0.0011872;51.9801;118.6422;349.5617;180.0081;2.0953E-5;-7.3E-7;0;Globalstar
11.48840039;0.0011882;51.9801;117.0238;350.7272;37.2867;-0.00013991;-8.0E-7;0;Globalstar
11.48840032;0.0011892;51.9801;116.1221;351.3825;122.4329;-0.00016429;-8.1E-7;0;Globalstar
11.4884002;0.0011908;51.98;114.4423;352.5914;83.597;-0.00027694;-8.6E-7;0;Globalstar
11.48840028;0.0011918;51.98;113.7854;353.0696;114.5933;-0.00021255;-8.3E-7;0;Globalstar
11.48840024;0.0011934;51.98;111.6631;354.6076;104.0308;-0.00016524;-8.1E-7;0;Globalstar
11.48840029;0.001194;51.98;111.2251;354.9291;124.7561;-0.0001283;-7.9E-7;0;Globalstar
11.48840036;0.0011961;51.98;108.8901;356.6153;114.0866;2.308E-5;-7.2E-7;0;Globalstar
11.48840051;0.0011987;51.98;106.3157;358.4724;148.0149;0.00019027;-6.5E-7;0;Globalstar
11.48840072;0.0012014;51.9801;103.7571;0.3223;155.6814;0.00033294;-5.9E-7;0;Globalstar
11.4884009;0.0012032;51.9802;101.6582;1.8495;105.6349;0.00039657;-5.6E-7;0;Globalstar
11.488401;0.0012053;51.9803;99.7591;3.2296;77.8753;0.00036464;-5.8E-7;0;Globalstar
11.48840132;0.0012056;51.9803;99.082;3.7273;142.9976;0.00042499;-5.5E-7;0;Globalstar
11.48840176;0.0012077;51.9804;96.7451;5.4301;135.5487;0.00038857;-5.6E-7;0;Globalstar
11.48840174;0.0012103;51.9806;94.8657;6.8032;74.3621;0.00021995;-6.4E-7;0;Globalstar
11.48840185;0.001212;51.9806;94.1889;7.2932;139.0994;0.00021336;-6.4E-7;0;Globalstar
11.48840205;0.0012147;51.9807;91.8344;9.0131;161.2791;8.7233E-5;-7.0E-7;0;Globalstar
11.48840209;0.0012159;51.9807;90.6504;9.8624;3.7773;8.7592E-6;-7.3E-7;0;Globalstar
11.4884022;0.0012172;51.9808;89.2944;10.8491;137.2402;-6.7865E-5;-7.6E-7;0;Globalstar
11.48840237;0.0012195;51.981;85.7572;13.4129;0.0054;-0.00016611;-8.1E-7;0;Globalstar
11.48840237;0.0012196;51.981;85.2926;13.7522;65.669;-0.0001946;-8.2E-7;0;Globalstar
11.48840245;0.001221;51.9811;84.4111;14.3996;116.6866;-0.00016963;-8.1E-7;0;Globalstar
11.48840233;0.0012225;51.9812;82.7374;15.6114;67.4195;-0.000201;-8.2E-7;0;Globalstar
11.48840248;0.0012239;51.9812;82.0628;16.1006;128.4593;-0.00013435;-7.9E-7;0;Globalstar
11.48840281;0.0012259;51.9814;80.1758;17.4618;79.7892;5.9436E-6;-7.3E-7;0;Globalstar
11.48840285;0.0012273;51.9815;78.5068;18.6571;22.744;7.5637E-5;-7.0E-7;0;Globalstar
11.48840273;0.0012294;51.9816;77.3672;19.5284;150.0962;0.00010523;-6.9E-7;0;Globalstar
11.48840267;0.0012307;51.9818;75.9586;20.556;12.5161;0.00010178;-6.9E-7;0;Globalstar
11.48840286;0.0012358;51.982;73.6017;22.3389;39.1151;0.00026444;-6.2E-7;0;Globalstar
11.48840305;0.0012369;51.9821;72.9429;22.8456;73.45;0.00034618;-5.8E-7;0;Globalstar
11.48840315;0.0012381;51.9821;72.4738;23.2012;146.8721;0.00036126;-5.8E-7;0;Globalstar
11.48840408;0.0012407;51.9824;70.3842;24.7598;81.2769;0.00056877;-4.9E-7;0;Globalstar
11.4884048;0.0012416;51.9825;68.7035;25.9597;44.1315;0.00061287;-4.7E-7;0;Globalstar
11.48840532;0.0012427;51.9827;67.3726;26.9259;135.2699;0.00064286;-4.5E-7;0;Globalstar
11.488407;0.0012454;51.9831;63.8297;29.495;8.1394;0.00076965;-4.0E-7;0;Globalstar
11.4884071;0.0012472;51.9833;61.4923;31.2287;1.8548;0.00053833;-5.0E-7;0;Globalstar
11.48840673;0.0012475;51.9834;60.1428;32.1735;124.6335;0.00027955;-6.1E-7;0;Globalstar
11.4884067;0.001249;51.9836;58.257;33.5369;74.513;0.00014567;-6.7E-7;0;Globalstar
11.48840631;0.0012496;51.9836;57.6232;33.9927;66.5743;-2.9604E-5;-7.5E-7;0;Globalstar
11.48840599;0.001251;51.9838;55.4684;35.5531;111.4888;-0.00013109;-7.9E-7;0;Globalstar
11.48840583;0.0012522;51.9839;54.0489;36.5947;352.7075;-0.00014823;-8.0E-7;0;Globalstar
11.48840528;0.0012543;51.9841;51.7061;38.3239;355.5267;-0.00021756;-8.3E-7;0;Globalstar
11.48840503;0.0012548;51.9842;50.5775;39.0545;105.4522;-0.00029755;-8.7E-7;0;Globalstar
11.48840425;0.0012566;51.9843;48.4473;40.618;108.8501;-0.00045415;-9.3E-7;0;Globalstar
11.48840387;0.001257;51.9843;48.2514;40.7316;80.2697;-0.00055691;-9.8E-7;0;Globalstar
11.48840295;0.0012597;51.9844;45.6819;42.6671;106.6955;-0.00068587;-1.04E-6;0;Globalstar
11.4884025;0.001261;51.9845;44.2277;43.7354;46.487;-0.00071441;-1.05E-6;0;Globalstar
11.48840303;0.0012631;51.9846;43.1354;44.5454;94.2979;-0.0004946;-9.5E-7;0;Globalstar
11.48840311;0.0012636;51.9847;41.8908;45.4326;39.6884;-0.00041037;-9.2E-7;0;Globalstar
11.48840438;0.0012672;51.985;39.3428;47.3504;29.4792;0.00014172;-6.7E-7;0;Globalstar
11.48840515;0.0012686;51.9851;38.6503;47.8443;121.1343;0.00035569;-5.8E-7;0;Globalstar
11.48840595;0.0012687;51.9851;37.0277;49.0268;345.8259;0.00048103;-5.2E-7;0;Globalstar
11.48840596;0.00127;51.9851;36.1258;49.686;71.5453;0.00047037;-5.3E-7;0;Globalstar
11.48840608;0.0012717;51.9852;34.4489;50.9422;28.2034;0.00037489;-5.7E-7;0;Globalstar
11.48840566;0.0012723;51.9852;33.3669;51.732;58.6032;0.00014519;-6.7E-7;0;Globalstar
11.48840567;0.0012731;51.9852;32.1117;52.6585;22.0329;8.2562E-5;-7.0E-7;0;Globalstar
11.48840565;0.0012749;51.9852;29.5554;54.5198;26.3244;2.5827E-5;-7.2E-7;0;Globalstar
11.48840573;0.0012752;51.9852;29.0889;54.8688;95.3191;8.2621E-5;-7.0E-7;0;Globalstar
11.48840576;0.0012765;51.9852;27.2174;56.2358;21.3088;6.3203E-5;-7.1E-7;0;Globalstar
11.48840567;0.0012774;51.9852;26.5251;56.7133;112.4889;7.1851E-5;-7.0E-7;0;Globalstar
11.4884056;0.0012772;51.9852;26.3256;56.8495;89.9806;4.9324E-5;-7.1E-7;0;Globalstar
11.48840566;0.0012785;51.9852;24.6619;58.0683;24.2901;9.904E-5;-6.9E-7;0;Globalstar
11.48840542;0.0012789;51.9852;23.9858;58.5855;87.8899;7.2092E-5;-7.0E-7;0;Globalstar
11.48840541;0.0012806;51.9852;22.3234;59.808;20.1246;0.00010903;-6.9E-7;0;Globalstar
11.48840507;0.00128;51.9851;21.429;60.4641;92.7335;-5.4786E-5;-7.6E-7;0;Globalstar
11.48840464;0.0012806;51.9851;19.7688;61.6597;21.1301;-0.00020951;-8.3E-7;0;Globalstar
11.48840448;0.0012825;51.9851;17.4294;63.3476;18.4437;-0.00020913;-8.3E-7;0;Globalstar
11.48840528;0.0012835;51.985;15.0911;65.0854;13.8248;6.2446E-5;-7.1E-7;0;Globalstar
11.48840575;0.0012846;51.9851;14.4344;65.5406;45.0372;0.00033248;-5.9E-7;0;Globalstar
11.48840608;0.0012857;51.9851;12.538;66.9515;12.9566;0.00037837;-5.7E-7;0;Globalstar
11.48840593;0.0012861;51.9851;11.8606;67.4429;78.8388;0.00032183;-5.9E-7;0;Globalstar
11.48840539;0.0012875;51.985;9.3018;69.2908;87.4174;6.4003E-5;-7.1E-7;0;Globalstar
11.48840462;0.0012893;51.9848;5.2876;72.2432;37.0104;-0.00014262;-8.0E-7;0;Globalstar
11.48840465;0.0012895;51.9848;5.0813;72.399;26.0682;-0.00012925;-7.9E-7;0;Globalstar
11.48840523;0.0012903;51.9847;4.6424;72.7704;48.397;3.029E-5;-7.2E-7;0;Globalstar
11.48840596;0.0012903;51.9847;2.7589;74.0805;354.5265;0.0002379;-6.3E-7;0;Globalstar
11.4884066;0.0012924;51.9846;2.0727;74.629;75.805;0.00031046;-6.0E-7;0;Globalstar
11.48840761;0.0012929;51.9845;0.1861;76.0053;26.8709;0.00064226;-4.5E-7;0;Globalstar
11.48840854;0.0012944;51.9843;358.0716;77.5472;3.7695;0.00083788;-3.7E-7;0;Globalstar
11.48840862;0.0012941;51.9844;357.8482;77.693;21.6221;0.00089186;-3.4E-7;0;Globalstar
11.48840772;0.0012944;51.9842;355.5299;79.35;342.9356;0.00056546;-4.9E-7;0;Globalstar
11.48840743;0.0012946;51.9842;354.8418;79.8033;66.933;0.00045424;-5.4E-7;0;Globalstar
11.48840731;0.0012951;51.9841;352.9659;81.1876;359.8788;0.00037992;-5.7E-7;0;Globalstar
11.4884073;0.0012952;51.9841;352.0687;81.8515;77.3748;0.0003104;-6.0E-7;0;Globalstar
11.48840749;0.0012955;51.984;350.6318;82.8953;347.9063;0.00035474;-5.8E-7;0;Globalstar
11.48840775;0.0012959;51.984;348.9607;84.1057;294.6708;0.00036915;-5.7E-7;0;Globalstar
11.48840792;0.0012964;51.984;348.0592;84.7643;19.516;0.00037432;-5.7E-7;0;Globalstar
11.48840855;0.001297;51.9839;345.7229;86.4712;11.1504;0.00045493;-5.4E-7;0;Globalstar
11.48840697;0.0012966;51.9838;343.1729;88.3764;4.3354;-5.4977E-5;-7.6E-7;0;Globalstar
11.48840655;0.0012964;51.9838;342.7134;88.6864;61.575;-0.00015396;-8.0E-7;0;Globalstar
11.48840521;0.0012969;51.9838;340.8278;90.0613;10.9066;-0.00052974;-9.7E-7;0;Globalstar
11.48840373;0.0012971;51.9837;338.4904;91.813;4.5033;-0.00084128;-1.1E-6;0;Globalstar
11.48840355;0.0012972;51.9837;338.2765;91.9625;6.3291;-0.00086308;-1.11E-6;0;Globalstar
11.48840278;0.0012975;51.9836;336.8373;93.0111;280.661;-0.0009692;-1.16E-6;0;Globalstar
11.48840313;0.0012976;51.9836;335.9415;93.6494;355.8568;-0.00083945;-1.1E-6;0;Globalstar
11.48840316;0.0012976;51.9835;335.4825;94.0085;52.0666;-0.00080511;-1.09E-6;0;Globalstar
11.48840408;0.0012984;51.9835;333.5955;95.3813;3.9859;-0.00049416;-9.5E-7;0;Globalstar
11.48840616;0.0012992;51.9835;332.1523;96.7169;284.9689;-4.7221E-5;-7.6E-7;0;Globalstar
11.48840848;0.0012985;51.9834;331.0149;97.3204;48.4603;0.00068504;-4.4E-7;0;Globalstar
11.48841045;0.0012994;51.9832;329.602;98.5147;278.5591;0.0012325;-2.0E-7;0;Globalstar
11.48841161;0.0012996;51.9832;328.4862;99.2567;5.9763;0.0015705;-5.0E-8;0;Globalstar
11.48841221;0.0012999;51.9832;327.0511;100.2917;273.5653;0.0015393;-6.0E-8;0;Globalstar
